[
  {
    "name": "ONEWEB-0309",
    "noradId": "49095",
    "line1": "1 49095U 21075W   26180.54256326  .00000054  00000+0  10589-3 0  9996",
    "line2": "2 49095  87.9131   3.4045 0002242  99.4830 260.6555 13.17649580235202"
  },
  {
    "name": "ONEWEB-0310",
    "noradId": "49096",
    "line1": "1 49096U 21075X   26180.50979500 -.00000050  00000+0 -17530-3 0  9990",
    "line2": "2 49096  87.8944 348.2287 0001847  93.7501 266.3839 13.12443852236808"
  },
  {
    "name": "ONEWEB-0311",
    "noradId": "49097",
    "line1": "1 49097U 21075Y   26180.54930238  .00000043  00000+0  77396-4 0  9997",
    "line2": "2 49097  87.9133   3.4030 0002066  78.3425 281.7939 13.17650945235252"
  },
  {
    "name": "ONEWEB-0312",
    "noradId": "49098",
    "line1": "1 49098U 21075Z   26180.48855603  .00000085  00000+0  18500-3 0  9990",
    "line2": "2 49098  87.9130   3.4256 0002167  87.7188 272.4191 13.17647748235223"
  },
  {
    "name": "ONEWEB-0313",
    "noradId": "49099",
    "line1": "1 49099U 21075AA  26180.49348830  .00000061  00000+0  12451-3 0  9994",
    "line2": "2 49099  87.9128   3.4299 0001933  86.2221 273.9132 13.17649174235215"
  },
  {
    "name": "ONEWEB-0314",
    "noradId": "49100",
    "line1": "1 49100U 21075AB  26180.53581878  .00000009  00000+0 -10821-4 0  9996",
    "line2": "2 49100  87.9142   3.3958 0002241  86.3990 273.7398 13.17650000235191"
  },
  {
    "name": "ONEWEB-0315",
    "noradId": "49101",
    "line1": "1 49101U 21075AC  26180.48268169 -.00000211  00000+0 -62300-3 0  9990",
    "line2": "2 49101  87.8954 348.1989 0001882  81.1006 279.0335 13.12441259236782"
  },
  {
    "name": "ONEWEB-0316",
    "noradId": "49102",
    "line1": "1 49102U 21075AD  26180.45079759  .00000074  00000+0  15473-3 0  9997",
    "line2": "2 49102  87.9177 333.0159 0001843  96.1094 264.0248 13.18675545238820"
  },
  {
    "name": "ONEWEB-0317",
    "noradId": "49103",
    "line1": "1 49103U 21075AE  26180.48606957 -.00000291  00000+0 -84435-3 0  9994",
    "line2": "2 49103  87.8956 348.2223 0002012 114.3055 245.8283 13.12441502236804"
  },
  {
    "name": "ONEWEB-0318",
    "noradId": "49104",
    "line1": "1 49104U 21075AF  26179.91629991  .00001445  00000+0  36313-2 0  9995",
    "line2": "2 49104  87.9178 333.1238 0001889  89.1631 270.9718 13.18678792238714"
  },
  {
    "name": "ONEWEB-0319",
    "noradId": "49105",
    "line1": "1 49105U 21075AG  26180.55099569  .00000042  00000+0  74215-4 0  9997",
    "line2": "2 49105  87.9131   3.4079 0001922  73.7074 286.4269 13.17650031235234"
  },
  {
    "name": "ONEWEB-0323",
    "noradId": "49106",
    "line1": "1 49106U 21075AH  26180.46744345  .00000297  00000+0  79145-3 0  9995",
    "line2": "2 49106  87.8955 348.2072 0002059  78.0757 282.0602 13.12440865236162"
  },
  {
    "name": "ONEWEB-0329",
    "noradId": "49107",
    "line1": "1 49107U 21075AJ  26180.48349956  .00000130  00000+0  30110-3 0  9992",
    "line2": "2 49107  87.9131   3.4221 0002002  88.0609 272.0751 13.17650174235200"
  },
  {
    "name": "ONEWEB-0330",
    "noradId": "49108",
    "line1": "1 49108U 21075AK  26180.49527356  .00000016  00000+0  76142-5 0  9996",
    "line2": "2 49108  87.9134   3.4347 0002097  91.5766 268.5607 13.19183655235241"
  },
  {
    "name": "ONEWEB-0292",
    "noradId": "49186",
    "line1": "1 49186U 21083A   26180.35396691  .00000127  00000+0  31277-3 0  9993",
    "line2": "2 49186  87.8963 317.8156 0001848  93.3357 266.7983 13.13469375232520"
  }
]